"id","Name","City","Country","IATA","Latitude","Longitude"
"5285","Begishevo Airport","Nizhnekamsk","Russia","NBC","55.56470108","52.09249878"
"10571","Mount House Airport","","","MHO","-17.05500031","125.7099991"
"3753","Panevėžys Air Base","Panevezys","Lithuania","PNV","55.72940063","24.46080017"
"5693","Abemama Atoll Airport","Abemama","Kiribati","AEA","0.490833014","173.8289948"
"6828","Fort Mackay / Horizon Airport","Wood Buffalo","Canada","HZP","57.38169861","-111.7009964"
"5706","Takaka Airport","Takaka","New Zealand","KTF","-40.81330109","172.7749939"
"7536","Alxa Right Banner Badanjilin Airport","Alxa Right Banner","China","RHT","39.225","101.546"
"8539","Salerno Airport","Khost","Afghanistan","OLR","33.3638","69.9561"
"3014","Trang Airport","Trang","Thailand","TST","7.508739948","99.61660004"
"8366","Van Don","Thành Phố Cẩm Phả","Vietnam","VDO","21.0704","107.2451"
"1559","Nevatim Air Base","Nevatim","Israel","VTM","31.20829964","35.01229858"
"10694","Guanghan Airport","Deyang","China","GHN","30.9485","104.3296"
"2650","Comandante FAP German Arias Graziani Airport","Anta","Peru","ATA","-9.347439766","-77.5983963"
"10299","Ustupo Airport","Ustupo","Panama","UTU","9.1283","-77.9337"
"1676","Batman Airport","Batman","Turkey","BAL","37.92900085","41.11660004"
"10126","Miraflores Airport","","","MFS","1.35","-71.9444"
"1643","Antalya International Airport","Antalya","Turkey","AYT","36.898701","30.800501"
"6749","Yeysk Airport","Eysk","Russia","EIK","46.68","38.21"
"8556","Candle 2 Airport","Candle","United States","CDL","65.90769959","-161.9259949"
"7781","CALVERTON/NAVAL WEAPONS INDUS.","Calverton","United States","CTO","40.9067","-72.7917"
"3484","Mc Clellan Airfield","Sacramento","United States","MCC","38.66759872","-121.401001"
"9574","Stroudsburg Pocono Airport","East Stroudsburg","United States","ESP","41.03580093","-75.16059875"
"5922","Ye Airport","Ye","Burma","XYE","15.30000019","97.86699677"
"8113","NORTH KINGSTON/QUONSET STATE","North Kingstown","United States","OQU","41.5971","-71.4121"
"313","Zoersel (Oostmalle) Airfield","Zoersel","Belgium","OBL","51.264702","4.75333"
"9147","Mui River Airport","","","MUJ","5.8646","35.7485"
"4284","Sindal Airport","Sindal","Denmark","CNL","57.503502","10.2294"
"4443","Lancaster Airport","Lancaster","United States","LNS","40.12170029","-76.2960968"
"1529","Portoroz Airport","Portoroz","Slovenia","POW","45.47340012","13.61499977"
"661","Katowice International Airport","Katowice","Poland","KTW","50.4743","19.08"
"1737","Chetumal International Airport","Chetumal","Mexico","CTM","18.50469971","-88.32679749"
"2651","Jorge Chávez International Airport","Lima","Peru","LIM","-12.0219","-77.114305"
"6460","Busselton Regional Airport","Brusselton","Australia","BQB","-33.68842316","115.4015961"
"10360","Mindiptana Airport","","Indonesia","MDP","-5.75","140.3670044"
"2275","Yecheon Airbase","Yechon","South Korea","YEC","36.630373","128.34971"
"4054","Sabiha Gökçen International Airport","Istanbul","Turkey","SAW","40.89860153","29.30920029"
"4624","Holy Cross Airport","Holy Cross","United States","HCR","62.18830109","-159.7749939"
"8990","Ankaizina Airport","Ambatoria","Madagascar","WBE","-14.544277","48.691413"
"4625","Haines Airport","Haines","United States","HNS","59.24380112","-135.5240021"
"2425","Jacareacanga Airport","Jacare-acanga","Brazil","JCR","-6.233160019","-57.77690125"
"3965","Francisco B. Reyes Airport","Busuanga","Philippines","USU","12.12150002","120.0999985"
"3829","General Wayne A. Downing Peoria International Airport","Peoria","United States","PIA","40.66419983","-89.69329834"
"7285","Shiyan Wudangshan Airport","Shiyan","China","WDS","32.591667","110.907778"
"3290","Tipton Airport","Fort Meade","United States","FME","39.08539963","-76.75939941"
"2424","Eduardo Gomes International Airport","Manaus","Brazil","MAO","-3.038609982","-60.04970169"
"3105","Butterworth Airport","Butterworth","Malaysia","BWH","5.465919971","100.3909988"
"4023","San Pedro Airport","San Pedro","Belize","SPR","17.9139","-87.9711"
"4887","Cloncurry Airport","Cloncurry","Australia","CNJ","-20.66860008","140.5039978"
"4942","Newman Airport","Newman","Australia","ZNE","-23.4178009","119.8030014"
"1379","Rennes-Saint-Jacques Airport","Rennes","France","RNS","48.06949997","-1.734789968"
"7894","INGHAM","Ingham","Australia","IGH","-18.6656","146.1475"
"9753","Munbil Airport","Bogut","Papua New Guinea","LNF","-4.855941","141.220165"
"14","Ísafjörður Airport","Isafjordur","Iceland","IFJ","66.05809784","-23.13529968"
"8248","CURITIBA/BACACHERI PR","","Brazil","RUC","-25.4025","-49.2339"
"9401","Kandep Airport","Kandep","Papua New Guinea","KDP","-5.840611111","143.5072222"
"7101","Winnemucca Municipal Airport","Winnemucca","United States","WMC","40.89659882","-117.8059998"
"1441","Sparti Airport","Sparti","Greece","SPJ","36.97389984","22.52630043"
"10046","Espinosa Airport","","Brazil","ESI","-14.93369444","-42.81"
"230","Ghriss Airport","Ghriss","Algeria","MUW","35.20769882","0.147141993"
"3413","Savannah Hilton Head International Airport","Savannah","United States","SAV","32.12760162","-81.20210266"
"6294","Kericho Airport","Kericho","Kenya","KEY","-0.3899","35.242093"
"5433","Yakataga Airport","Yakataga","United States","CYT","60.080974","-142.494541"
"2159","Pohnpei International Airport","Pohnpei","Micronesia","PNI","6.985099792","158.2089996"
"6896","Juruena Airport","Juruena","Brazil","JRN","-10.30583286","-58.48944473"
"19","Vestmannaeyjar Airport","Vestmannaeyjar","Iceland","VEY","63.42430115","-20.27890015"
"6654","Beni Mellal Airport","Beni Mellal","Morocco","BEM","32.401895","-6.315905"
"2883","Netaji Subhash Chandra Bose International Airport","Kolkata","India","CCU","22.65469933","88.44670105"
"8133","Port Harcourt City","Port Harcourt","Nigeria","PHG","4.85","7.0167"
"7067","Deming Municipal Airport","Deming","United States","DMN","32.26229858","-107.7210007"
"3125","Brisbane Archerfield Airport","Brisbane","Australia","ACF","-27.57029915","153.0079956"
"8176","Narsaq Kujalleq Heliport","Narsaq Kujalleq","Greenland","QFN","60.0036","-44.6536"
"9445","Farmington Regional Airport","Farmington","United States","FAM","37.76110077","-90.4285965"
"25","Kugaaruk Airport","Pelly Bay","Canada","YBB","68.534401","-89.808098"
"9441","Eastland Municipal Airport","Eastland","United States","ETN","32.41350174","-98.80979919"
"943","Lambarene Airport","Lambarene","Gabon","LBQ","-0.704388976","10.24569988"
"7886","Hollis","Hollis","United States","HYL","55.4816","-132.6461"
"7235","Kazi Nazrul Islam Airport","Durgapur","India","RDP","23.6225","87.243"
"4113","Tuscaloosa Regional Airport","Tuscaloosa AL","United States","TCL","33.22060013","-87.61139679"
"8868","Dedougou Airport","Dedougou","Burkina Faso","DGU","12.45899963","-3.49000001"
"3371","Wiley Post Will Rogers Memorial Airport","Barrow","United States","BRW","71.285402","-156.766008"
"9589","Omak Airport","Omak","United States","OMK","48.46440125","-119.5179977"
"1475","Vincenzo Florio Airport Trapani-Birgi","Trapani","Italy","TPS","37.9114","12.488"
"6042","Apalachicola Regional Airport","Apalachicola","United States","AAF","29.72750092","-85.02749634"
"3495","Dyess Air Force Base","Abilene","United States","DYS","32.42079926","-99.854599"
"9246","Viveros Island Airport","San Miguel, Panamá Province","Panama","IVI","8.4693","-79.0016"
"9540","Malden Regional Airport","Malden","United States","MAW","36.6006012","-89.99220276"
"3790","Talkeetna Airport","Talkeetna","United States","TKA","62.32049942","-150.0939941"
"8062","  Manare","Manari","Papua New Guinea","MRM","-9.2","147.617"
"9145","Metema Airport","Metema","Ethiopia","ETE","12.93299961","36.16699982"
"6024","Kanas Airport","Burqin","China","KJI","48.2223","86.9959"
"5445","Kongiganak Airport","Kongiganak","United States","KKH","59.96080017","-162.8809967"
"3726","Chiang Mai International Airport","Chiang Mai","Thailand","CNX","18.76679993","98.96260071"
"9914","Bishe Kola Air Base","Bishe Kola","Iran","BSM","36.65510178","52.34960175"
"5613","Saskylakh Airport","Saskylakh","Russia","SYS","71.92790222","114.0800018"
"1257","Royan-Médis Airport","Royan","France","RYN","45.62810135","-0.972500026"
"8138","  Pacific Harbour / Deuba","Pacific Harbour","Fiji","PHR","-18.257","178.068"
"17","Reykjavik Airport","Reykjavik","Iceland","RKV","64.12999725","-21.94059944"
"2182","Matsumoto Airport","Matsumoto","Japan","MMJ","36.16680145","137.9230042"
"4347","Eros Airport","Windhoek","Namibia","ERS","-22.61219978","17.08040047"
"8580","Los Menucos Airport","Los Menucos","Argentina","LMD","-40.817699","-68.074699"
"360","Lübeck Blankensee Airport","Luebeck","Germany","LBC","53.80540085","10.71920013"
"3073","Rendani Airport","Manokwari","Indonesia","MKW","-0.891833007","134.048996"
"1472","Falcone–Borsellino Airport","Palermo","Italy","PMO","38.175999","13.091"
"6562","Santa Cruz del Quiche Airport","Santa Cruz des Quiche","Guatemala","AQB","15.01220036","-91.15059662"
"3568","New Orleans NAS JRB/Alvin Callender Field","New Orleans","United States","NBG","29.82530022","-90.03500366"
"2724","Tumeremo Airport","Tumeremo","Venezuela","TMO","7.24938","-61.52893"
"954","Lichinga Airport","Lichinga","Mozambique","VXC","-13.274","35.2663"
"4736","Komsomolsk-on-Amur Airport","Komsomolsk-on-Amur","Russia","KXK","50.4090004","136.9340057"
"7254","Corowa Airport","","Australia","CWW","-35.99470139","146.3569946"
"4896","Devonport Airport","Devonport","Australia","DPO","-41.16970062","146.4299927"
"9869","Onotoa Airport","Tanyah","Kiribati","OOT","-1.796110034","175.526001"
"3146","Melbourne International Airport","Melbourne","Australia","MEL","-37.673302","144.843002"
"1381","Quimper-Cornouaille Airport","Quimper","France","UIP","47.97499847","-4.167789936"
"95","Matagami Airport","Matagami","Canada","YNM","49.76169968","-77.80280304"
"10191","Cayana Airstrip","Cajana","Suriname","AAJ","3.898681","-55.577907"
"4978","Baotou Airport","Baotou","China","BAV","40.56000137","109.9970016"
"123","Gander International Airport","Gander","Canada","YQX","48.93690109","-54.56809998"
"806","Ladysmith Airport","Ladysmith","South Africa","LAY","-28.58169937","29.74970055"
"5004","Dalanzadgad Airport","Dalanzadgad","Mongolia","DLZ","43.59170151","104.4300003"
"2799","Minsk 1 Airport","Minsk","Belarus","MHP","53.86449814","27.53969955"
"1336","Abbeville","Abbeville","France","XAB","50.143501","1.831891"
"3248","Trenton Mercer Airport","Trenton","United States","TTN","40.27669907","-74.81349945"
"10348","Kyauktu Airport","Kyaukhtu","Myanmar (Burma)","KYT","21.39999962","94.13330078"
"10502","Eva Downs Airport","","","EVD","-18.00099945","134.8630066"
"8040","Monteagudo","La Herradura","Bolivia","MHW","-19.4925","-63.5745"
"3470","Dallas Fort Worth International Airport","Dallas-Fort Worth","United States","DFW","32.896801","-97.038002"
"111","Red Deer Regional Airport","Red Deer Industrial","Canada","YQF","52.18220139","-113.8939972"
"7133","Coronel Enrique Soto Cano Air Base","Comayagua","Honduras","XPL","14.3824","-87.621201"
"3715","Komodo Airport","Labuhan Bajo","Indonesia","LBJ","-8.48666","119.889"
"6575","Evanston-Uinta County Airport-Burns Field","Evanston","United States","EVW","41.27479935","-111.0350037"
"9797","Copán Ruinas Airport","","Honduras","RUY","14.914885","-89.007837"
"950","Principe Airport","Principe","Sao Tome and Principe","PCP","1.662940025","7.411739826"
"2274","Daegu Airport","Taegu","South Korea","TAE","35.896872","128.65531"
"7176","Coveñas Airport","Coveñas","Colombia","CVE","9.40092","-75.6913"
"813","Mkuze Airport","Mkuze","South Africa","MZQ","-27.62610054","32.04430008"
"1820","Guapiles Airport","Guapiles","Costa Rica","GPL","10.21720028","-83.79699707"
"6600","Cowra Airport","Chatsworth","Australia","CWT","-33.84469986","148.6490021"
"10548","Kalpowar Airport","","","KPP","-14.89","144.22"
"9193","Masasi Airport","Masasi","Tanzania","XMI","-10.7329998","38.76699829"
"6263","Keokuk Municipal Airport","Keokuk","United States","EOK","40.4598999","-91.42849731"
"7784","Caye Caulker                            ","","","CUK","17.7347","-88.0325"
"9390","Kickapoo Downtown Airport","Wichita Falls","United States","KIP","33.85779953","-98.49040222"
"4425","Dodge City Regional Airport","Dodge City","United States","DDC","37.76340103","-99.96559906"
"7260","Echuca Airport","","Australia","ECH","-36.15719986","144.7619934"
"10448","Bloomfield River Airport","Bloomfield","Australia","BFC","-15.87360001","145.3300018"
"8594","Cresswell Downs Airport","","","CSD","-17.94799995","135.9160004"
"6470","Dinwiddie County Airport","Petersburg","United States","PTB","37.18379974","-77.50740051"
"5250","Lausanne-Blécherette Airport","Lausanne","Switzerland","QLS","46.54529953","6.616670132"
"7421","Oyo Ollombo Airport","Oyo","Congo (Brazzaville)","OLL","-1.226666","15.91"
"5144","Kangra Airport","Kangra","India","DHM","32.1651001","76.26339722"
"5691","Douglas Municipal Airport","Douglas","United States","DGL","31.34259987","-109.5059967"
"2477","Ponta Porã Airport","Ponta Pora","Brazil","PMG","-22.5496006","-55.70259857"
"9413","Angama Airport","Kawai","Kenya","ANA","-1.27156","34.955513"
"9984","Chungribu Airport","Chungrebu","Papua New Guinea","CVB","-4.806620121","144.7149963"
"7990","Thorne Bay","Thorne Bay","United States","KTB","55.688","-132.5367"
"153","Norman Wells Airport","Norman Wells","Canada","YVQ","65.28160095","-126.7979965"
"859","Kasane Airport","Kasane","Botswana","BBK","-17.83289909","25.16239929"
"8068","XXX","Namuga","Solomon Islands","NAZ","-10.7833","162.3"
"4747","Rivne International Airport","Rivne","Ukraine","RWN","50.60710144","26.14159966"
"9928","Bahawalnagar Airport","Bahāwalnagar","Pakistan","WGB","29.94630051","73.24909973"
"5489","Siuna","Siuna","Nicaragua","SIU","13.72722244","-84.77777863"
"10625","Rutland Plains Airport","Kowanyama","Australia","RTP","-15.64330006","141.8430023"
"4752","Kotlas Airport","Kotlas","Russia","KSZ","61.2358017","46.69749832"
"1370","La Baule-Escoublac Airport","La Baule","France","LBY","47.28939819","-2.346390009"
"9366","Kyle Oakley Field","Penny","United States","CEY","36.66460037","-88.37280273"
"3748","Barysiai Airport","Barysiai","Lithuania","HLJ","56.0705986","23.55809975"
"8731","Hólmavík Airport","Hólmavík","Iceland","HVK","65.70469666","-21.69639969"
"1794","Cancún International Airport","Cancun","Mexico","CUN","21.03650093","-86.87709808"
"2333","Catamarca Airport","Catamarca","Argentina","CTC","-28.59560013","-65.75170136"
"2101","Fujairah International Airport","Fujeirah","United Arab Emirates","FJR","25.11219978","56.32400131"
"5609","Qurghonteppa International Airport","Kurgan Tyube","Tajikistan","KQT","37.86640167","68.86470032"
"680","Gothenburg City Airport","Gothenborg","Sweden","GSE","57.7747","11.8704"
"2966","Bellary Airport","Bellary","India","BEP","15.16279984","76.88279724"
"5111","Ormoc Airport","Ormoc City","Philippines","OMC","11.05799961","124.5650024"
"2505","Eurico de Aguiar Salles Airport","Vitoria","Brazil","VIX","-20.258057","-40.286388"
"888","Mfuwe Airport","Mfuwe","Zambia","MFU","-13.25889969","31.93659973"
"2290","Awang Airport","Cotabato","Philippines","CBO","7.165239811","124.2099991"
"2731","Sir Grantley Adams International Airport","Bridgetown","Barbados","BGI","13.07460022","-59.49250031"
"3682","Ladd AAF Airfield","Fort Wainwright","United States","FBK","64.83750153","-147.6139984"
"8202","PECS/POGANY","Pogány","Hungary","QPJ","45.9892","18.2421"
"4295","Værøy Heliport","Værøy","Norway","VRY","67.654555","12.727257"
"2521","María Dolores Airport","Los Angeles","Chile","LSQ","-37.40169907","-72.42539978"
"3468","Roscommon County - Blodgett Memorial Airport","Houghton Lake","United States","HTL","44.359798","-84.671095"
"7568","Bunyu Airport","Bunyu","Indonesia","BYQ","3.455719948","117.8669968"
"98","High Level Airport","High Level","Canada","YOJ","58.62139893","-117.1650009"
"357","Siegerland Airport","Siegerland","Germany","SGE","50.70769882","8.082969666"
"1998","Gurayat Domestic Airport","Guriat","Saudi Arabia","URY","31.412413","37.278898"
"5492","Playa Samara/Carrillo Airport","Carrillo","Costa Rica","PLD","9.870510101","-85.48139954"
"9176","Tessenei Airport","Teseney","Eritrea","TES","15.104322","36.681711"
"9288","North Fork Valley Airport","Paonia","United States","WPO","38.83169937","-107.6460037"
"9717","Willows Glenn County Airport","Willows","United States","WLW","39.51639938","-122.2180023"
"940","Xangongo Airport","Xangongo","Angola","XGN","-16.7553997","14.96529961"
"53","Inuvik Mike Zubko Airport","Inuvik","Canada","YEV","68.30419922","-133.4830017"
"5068","Unst Airport","Unst","United Kingdom","UNT","60.74720001","-0.853850007"
"2695","Elorza Airport","Elorza","Venezuela","EOZ","7.083333015","-69.53333282"
"9419","Mumias Airport","Mumias","Kenya","MUM","0.355399","34.528234"
"3223","Bryant Army Heliport","Fort Richardson","United States","FRN","61.26639938","-149.6529999"
"8929","Sabi Sabi Airport","Sabie Park","South Africa","GSS","-24.94737543","31.44884777"
"9590","Kakoro(Koroko) Airstrip","Kakoro","Papua New Guinea","KOR","-7.834666667","146.5335"
"10423","Vinh Long Airfield","","Vietnam","XVL","10.2509","105.9445"
"6708","Farah Airport","Farah","Afghanistan","FAH","32.36700058","62.18299866"
"9535","Lawrenceville Vincennes International Airport","Lawrenceville","United States","LWV","38.7643013","-87.60549927"
"7298","Rajiv Gandhi International Airport","Hyderabad","India","HYD","17.23131752","78.42985535"
"2852","Jamnagar Airport","Jamnagar","India","JGA","22.46549988","70.01260376"
"8484","Munich Rail (DE)","München","Germany","ZMU","48.1394","11.5609"
"4914","Kubin Airport","Kubin","Australia","KUG","-10.22500038","142.2180023"
"6334","Beech Factory Airport","Wichita","United States","BEC","37.69449997","-97.21499634"
"3080","Sibu Airport","Sibu","Malaysia","SBW","2.261600018","111.9850006"
"189","Armstrong Airport","Armstrong","Canada","YYW","50.29029846","-88.90969849"
"1489","Milano Linate Airport","Milan","Italy","LIN","45.445099","9.27674"
"9705","Kitava Airport","Kitava I","Papua New Guinea","KVE","-8.6285","151.327"
"8100","Ustupu Island","Mulatupo O Sasardi","Panama","OGM","8.945","-77.734"
"8708","Sim Airport","Kasangari Number 2","Papua New Guinea","SMJ","-7.75","146.9273"
"9812","Punta Colorada Airport","Punta Colorada","Mexico","PCO","23.575011","-109.535826"
"110","Quebec Jean Lesage International Airport","Quebec","Canada","YQB","46.7911","-71.393303"
"9887","Mueo Airport","Népoui","New Caledonia","PDC","-21.31640053","164.9989929"
"8414","Doha Free Zone","الدوحة","Qatar","XOZ","25.25","51.5"
"2055","Mehrabad International Airport","Teheran","Iran","THR","35.68920135","51.31340027"
"6073","Richard B Russell Airport","Rome","United States","RMG","34.3506012","-85.15799713"
"1138","Damazin Airport","Damazin","Sudan","RSS","11.7859","34.3367"
"2196","Iki Airport","Iki","Japan","IKI","33.74900055","129.7850037"
"976","N'Djamena International Airport","N'djamena","Chad","NDJ","12.1337","15.034"
"4022","Barnstable Municipal Boardman Polando Field","Barnstable","United States","HYA","41.66930008","-70.28040314"
"8932","Vryheid Airport","Vryheid","South Africa","VYD","-27.78689957","30.79640007"
"6139","Handan Airport","Handan","China","HDG","36.52583333","114.4255556"
"7171","Chañaral Airport","Chañaral","Chile","CNR","-26.33250046","-70.6072998"
"173","Abbotsford Airport","Abbotsford","Canada","YXX","49.02529907","-122.3610001"
"848","Virginia Airport","Durban","South Africa","VIR","-29.77059937","31.0583992"
"2679","General José Antonio Anzoategui International Airport","Barcelona","Venezuela","BLA","10.111111","-64.692222"
"5476","Bonnyville Airport","Bonnyville","Canada","YBY","54.304199","-110.744003"
"5224","Montrose Regional Airport","Montrose CO","United States","MTJ","38.50979996","-107.8939972"
"8184","LA GOMERA","Playa Santiago","Spain","QGZ","28.0296","-17.2146"
"5392","Merced Regional Macready Field","Merced","United States","MCE","37.28469849","-120.5139999"
"10690","Sena Madureira Airport","","Brazil","ZMD","-9.116","-68.6108"
"2607","El Embrujo Airport","Providencia","Colombia","PVA","13.3569","-81.3583"
"8853","Leo Airport","Leo","Burkina Faso","XLU","11.10000038","-2.099999905"
"7745","  Boset","Bosset","Papua New Guinea","BOT","-7.233","141.083"
"579","Eindhoven Airport","Eindhoven","Netherlands","EIN","51.45009995","5.374529839"
"6394","Velikiy Ustyug Airport","Veliky Ustyug","Russia","VUS","60.78829956","46.25999832"
"4593","Khoram Abad Airport","Khorram Abad","Iran","KHD","33.4353981","48.28290176"
"1301","Saint-Yan Airport","St.-yan","France","SYT","46.41249847","4.013259888"
"10048","Jacarepaguá - Roberto Marinho Airport","","Brazil","RRJ","-22.986773","-43.372194"
"1321","Le Castellet Airport","Le Castellet","France","CTT","43.25249863","5.785190105"
"9986","Hayfields Airport","Hayfield","Papua New Guinea","HYF","-3.69838","143.057902"
"8448","LA TUQUE","","","YLQ","47.4097","-72.7889"
"4163","Thorshofn Airport","Thorshofn","Iceland","THO","66.21849823","-15.3355999"
"6880","Juscelino Kubitscheck Airport","Teofilo Otoni","Brazil","TFL","-17.89229965","-41.5135994"
"6249","Marco Island Executive Airport","Marco Island Airport","United States","MRK","25.995001","-81.672501"
"7630","Seldovia Airport","Seldovia","United States","SOV","59.44240189","-151.7039948"
"7409","Ulanqab Jining Airport","Wulanchabu","China","UCB","41.129722","113.108056"
"9824","Flamingo Airport","Brasilito","Costa Rica","FMG","10.41860008","-85.78269958"
"5698","Beru Airport","Beru Island","Kiribati","BEZ","-1.354719996","176.0070038"
"6324","Lima Allen County Airport","Lima","United States","AOH","40.706902","-84.026703"
"2808","Stavropol Shpakovskoye Airport","Stavropol","Russia","STW","45.10919952","42.1128006"
"5557","Maués Airport","Maues","Brazil","MBZ","-3.37217","-57.7248"
"5044","Jinzhou Airport","Jinzhou","China","JNZ","41.10139847","121.0619965"
"4298","Åre Östersund Airport","Östersund","Sweden","OSD","63.19440079","14.50030041"
"4618","Sulaymaniyah International Airport","Sulaymaniyah","Iraq","ISU","35.5617485","45.31673813"
"7906","Yinchuan","Yinchuan","China","INC","38.4819","106.0092"
"35","Charlo Airport","Charlo","Canada","YCL","47.990799","-66.330299"
"4205","Quaqtaq Airport","Quaqtaq","Canada","YQC","61.04639816","-69.61779785"
"8372","ALBEMARLE / STANLEY COUNTY","Badin","United States","VUJ","35.4167","-80.1508"
"8944","Ewo Airport","Ewo","Republic Of The Congo","EWO","-0.883000016","14.80000019"
"9818","Makini Airport","Mawaning","Papua New Guinea","MPG","-6.532222222","147.6511667"
"924","Mbanza Congo Airport","M'banza-congo","Angola","SSY","-6.269899845","14.24699974"
"8717","Willmar Municipal -John L Rice Field","Willmar","United States","ILL","45.11769867","-95.13040161"
"8782","Fort McMurray / Mildred Lake Airport","Mildred Lake","Canada","NML","57.05559921","-111.5739975"
"5003","Bayankhongor Airport","Bayankhongor","Mongolia","BYN","46.16329956","100.7040024"
"8924","Musina(Messina) Airport","Musina","South Africa","MEZ","-22.3560009","29.98620033"
"8566","Dirico Airport","Dirico","Angola","DRC","-17.98192406","20.76806068"
"9334","Allen C Perkinson Blackstone Army Air Field","Blackstone","United States","BKT","37.07419968","-77.95749664"
"3272","Acadiana Regional Airport","Louisiana","United States","ARA","30.0378","-91.883904"
"8768","Mary River Aerodrome","Mary River","Canada","YMV","71.32416667","-79.35694444"
"10291","Preobrazheniye Airport","Preobrazheniye","Russia","RZH","42.921698","133.904438"
"9951","San Miguel Airport","San Miguel, Panamá Province","Panama","NMG","8.4566","-78.9339"
"9866","Wakaya Island Airport","","","KAY","-17.61700058","179.0169983"
"1449","Thessaloniki Macedonia International Airport","Thessaloniki","Greece","SKG","40.5196991","22.97089958"
"3177","Nanning Wuxu Airport","Nanning","China","NNG","22.60829926","108.1719971"
"7629","Istanbul Airport","Istanbul","Turkey","IST","41.275278","28.751944"
"2644","Teniente FAP Jaime A De Montreuil Morales Airport","Chimbote","Peru","CHM","-9.149609566","-78.52380371"
"9608","Park Falls Municipal Airport","Park Falls","United States","PKF","45.95500183","-90.42440033"
"2389","Villa Gesell Airport","Villa Gesell","Argentina","VLG","-37.2354","-57.0292"
"8373","ZWARA","Zuwara","Libya","WAX","32.98","12.015"
"3518","Abilene Regional Airport","Abilene","United States","ABI","32.41130066","-99.68190002"
"9239","Pakyong Airport","Pakyong","India","PYG","27.2313","88.587196"
"7770","Crooked Creek","Crooked Creek","United States","CKD","61.8679","-158.1349"
"8560","Alto Molocue Airport","Alto Molocue","Mozambique","AME","-15.61027778","37.68138889"
"8886","Ouango Fitini Airport","Ouangofétini","Côte D'Ivoire","OFI","9.600000381","-4.050000191"
"4859","Pangsuma Airport","Putussibau-Borneo Island","Indonesia","PSU","0.835578024","112.9369965"
"1349","Toussus-le-Noble Airport","Toussous-le-noble","France","TNF","48.75189972","2.106189966"
"2758","Canouan Airport","Canouan Island","Saint Vincent and the Grenadines","CIW","12.699","-61.3424"
"1979","Jalalabad Airport","Jalalabad","Afghanistan","JAA","34.39979935","70.49859619"
"3551","Denver International Airport","Denver","United States","DEN","39.86169815","-104.6729965"
"6161","General Villamil Airport","Isabela","Ecuador","IBB","-0.942628026","-90.95300293"
"8424","Williston","Williston","United States","XWA","48.1535","-103.4502"
"7799","Deer Harbor","Eastsound","United States","DHB","48.616","-123.0"
"4511","Jaqué Airport","Jaqué","Panama","JQE","7.517779827","-78.15720367"
"96","Old Crow Airport","Old Crow","Canada","YOC","67.57060242","-139.8390045"
"8380","West Angelas","Newman","Australia","WLP","-23.1369","118.7065"
"10294","Mukhaizna Airport","","","UKH","19.38638889","56.40138889"
"8428","XXX","Polliat","France","XYD","46.2353","5.1517"
"10083","Aguaclara Airport","","Colombia","ACL","4.753611","-73.002778"
"8637","Haivaro Airport","Haivaro","Papua New Guinea","HIT","-6.9406","143.059"
"7833","FORT SCOTT MUNI","Fort Scott","United States","FSK","37.7984","-94.7694"
"3707","Syamsudin Noor Airport","Banjarmasin","Indonesia","BDJ","-3.442359924","114.7630005"
"4807","Lokpriya Gopinath Bordoloi International Airport","Guwahati","India","GAU","26.10610008","91.58589935"
"3331","Kodiak Airport","Kodiak","United States","ADQ","57.75","-152.4940033"
"9819","Mapua(Mabua) Airport","Mapua","Papua New Guinea","MPU","-2.811388889","151.9911111"
"710","Sundsvall-Härnösand Airport","Sundsvall","Sweden","SDL","62.52809906","17.44389915"
"4848","Long Lellang Airport","Long Datih","Malaysia","LGL","3.421000004","115.1539993"
"8878","Boundiali Airport","Boundiali","Côte D'Ivoire","BXI","9.532999992","-6.467000008"
"10253","Paramakatoi Airport","Paramahatoi","Guyana","PMT","4.6975","-59.7125"
"3069","Pattimura Airport, Ambon","Ambon","Indonesia","AMQ","-3.710259914","128.0890045"
"4684","Toledo Airport","Toledo","Brazil","TOW","-24.6863","-53.697498"
"7916","NOSHAHR","Nowshahr","Iran","IRN","36.6633","51.4647"
"8124","PAKSE AIRFIELD","Pakxé","Laos","PAK","15.1333","105.7833"
"6497","Martin State Airport","Baltimore","United States","MTN","39.325699","-76.413803"
"366","Mönchengladbach Airport","Moenchengladbach","Germany","MGL","51.230278","6.504444"
"2443","Francisco Vilela do Amaral Airport","Itumbiara","Brazil","ITR","-18.44470024","-49.21340179"
"974","Abeche Airport","Abeche","Chad","AEH","13.84700012","20.84429932"
"1346","Charles de Gaulle International Airport","Paris","France","CDG","49.012798","2.55"
"1102","Hurghada International Airport","Hurghada","Egypt","HRG","27.17830086","33.79940033"
"5427","Koyuk Alfred Adams Airport","Koyuk","United States","KKA","64.9394989","-161.154007"
"1802","Bluefields Airport","Bluefields","Nicaragua","BEF","11.99100018","-83.77410126"
"4202","Kuujjuarapik Airport","Kuujjuarapik","Canada","YGW","55.2818985","-77.76529694"
"4363","Smara Airport","Smara","Western Sahara","SMW","26.7318","-11.6847"
"3606","Charleston Air Force Base-International Airport","Charleston","United States","CHS","32.89860153","-80.04049683"
"4408","Athens Ben Epps Airport","Athens","United States","AHN","33.94860077","-83.32630157"
"6328","Georgetown County Airport","Georgetown","United States","GGE","33.31169891","-79.31960297"
"5842","Yuba County Airport","Yuba City","United States","MYV","39.09780121","-121.5699997"
"5106","Mekoryuk Airport","Mekoryuk","United States","MYU","60.37139893","-166.2709961"
"3641","Fort Dodge Regional Airport","Fort Dodge","United States","FOD","42.55149841","-94.19259644"
"6405","Zhytomyr Airport","Zhytomyr","Ukraine","ZTR","50.270556","28.738611"
"343","Nuremberg Airport","Nuernberg","Germany","NUE","49.498699","11.078056"
"7019","Pincher Creek Airport","Pincher Creek","Canada","WPC","49.52059937","-113.9970016"
"10325","Kontum Airport","Thành Phố Kon Tum","Vietnam","KON","14.35000038","108.0169983"
"10586","Muttaburra Airport","Muttaburra","Australia","UTB","-22.58329964","144.5330048"
"563","RAF Honington","Honington","United Kingdom","BEQ","52.34260178","0.772939026"
"4498","La Isabela International Airport","La Isabela","Dominican Republic","JBQ","18.57250023","-69.98560333"
"6415","Bromont (Roland Desourdy) Airport","Bromont","Canada","ZBM","45.29079819","-72.74140167"
"5462","Natuashish Airport","Natuashish","Canada","YNP","55.913898","-61.184399"
"6897","Juína Airport","Juina","Brazil","JIA","-11.419444","-58.701668"
"5342","Lake Cumberland Regional Airport","Somerset","United States","SME","37.05339813","-84.61589813"
"1285","Bastia-Poretta Airport","Bastia","France","BIA","42.55270004","9.483730316"
"390","Donaueschingen-Villingen Airport","Donaueschingen","Germany","ZQL","47.97333145","8.522221565"
"6862","Oryol Yuzhny Airport","Oakley","United States","OEL","52.93470001","36.00220108"
"9428","Northeastern Regional Airport","Edenton","United States","EDE","36.02769852","-76.56710052"
"258","Akure Airport","Akure","Nigeria","AKR","7.246739864","5.301010132"
"3307","Luke Air Force Base","Phoenix","United States","LUF","33.53499985","-112.3830032"
"8604","Sturt Creek Airport","","","SSK","-19.16640091","128.173996"
"9755","Francisco Primo de Verdad y Ramos Airport","Santa Rosa","Mexico","LOM","21.258983","-101.943758"
"2739","Henry E Rohlsen Airport","St. Croix Island","Virgin Islands","STX","17.70190048","-64.79859924"
"3496","South Arkansas Regional At Goodwin Field","El Dorado","United States","ELD","33.22100067","-92.81330109"
"6132","Yuendumu Airport","Yuendumu ","Australia","YUE","-22.25419998","131.7819977"
"3494","Altoona Blair County Airport","Altoona","United States","AOO","40.29639816","-78.31999969"
"9040","Salima Airport","Senga","Malawi","LMB","-13.7558927","34.58418846"
"6692","Muara Bungo Airport","Muara Bungo","Indonesia","BUU","-1.1278","102.135"
"8729","Fáskrúðsfjörður Airport","Fáskrúðsfjörður","Iceland","FAS","64.931456","-14.047957"
"9579","Nervino Airport","Beckwourth","United States","NVN","39.81850052","-120.3529968"
"8858","Dori Airport","Dori","Burkina Faso","DOR","14.03299999","-0.033"
"9972","Pacific City State Airport","Pacific City","United States","PFC","45.19979858","-123.961998"
"1927","Bauerfield International Airport","Port-vila","Vanuatu","VLI","-17.69930077","168.3200073"
"3677","McCarran International Airport","Las Vegas","United States","LAS","36.08010101","-115.1520004"
"4061","Valan Airport","Honningsvag","Norway","HVG","71.00969696","25.98360062"
"8680","Sila Airport","Sila Mission","Papua New Guinea","SIL","-9.073555556","148.38925"
"10172","Antônio Guerreiro Airport","","Brazil","GMS","-2.109444","-44.651114"
"1810","Panama Pacific International Airport","Howard","Panama","BLB","8.91479","-79.599602"
"2113","Shahbaz Air Base","Jacobsbad","Pakistan","JAG","28.28420067","68.4496994"
"6997","Leaf Rapids Airport","Leaf Rapids","Canada","YLR","56.51330185","-99.98529816"
"8125","PARNAIBA/PREF DR JOAO S. FILHO","","Brazil","PBB","-2.8939","-41.7325"
"8568","Jamba Airport","Cuanja","Angola","JMB","-14.6981926","16.07014847"
"5863","Cooinda Airport","Cooinda","Australia","CDA","-12.90330029","132.5319977"
"2712","Paramillo Airport","San Cristobal","Venezuela","SCI","7.801320076","-72.20290375"
"5179","Hohenems-Dornbirn Airport","Hohenems","Austria","HOH","47.38499832","9.699999809"
"9162","Eil Airport","Eyl","Somalia","HCM","8.104","49.82"
"704","Gällivare Airport","Gallivare","Sweden","GEV","67.13240051","20.81459999"
"4043","Cheddi Jagan International Airport","Georgetown","Guyana","GEO","6.498549938","-58.2541008"
"7900","Ikerasak","Ikerasak","Greenland","IKE","70.4956","-51.3031"
"8417","  Qualicum Beach","Qualicum Beach","Canada","XQU","49.3372","-124.3939"
"3660","Unalaska Airport","Unalaska","United States","DUT","53.90010071","-166.5440063"
"4993","Yichang Sanxia Airport","Yichang","China","YIH","30.55655","111.479988"
"8081","Niaqornat","Niaqornat","Greenland","NIQ","70.7917","-53.6667"
"3727","Chiang Rai International Airport","Chiang Rai","Thailand","CEI","19.95229912","99.88289642"
"5035","Wanxian Airport","Wanxian","China","WXN","30.8017","108.433"
"3041","Myitkyina Airport","Myitkyina","Burma","MYT","25.38360023","97.35189819"
"8811","Brockville - Thousand Islands Regional Tackaberry Airport","","Canada","XBR","44.63940048","-75.75029755"
"2195","Wakkanai Airport","Wakkanai","Japan","WKJ","45.40420151","141.8009949"
"1715","Goloson International Airport","La Ceiba","Honduras","LCE","15.7425","-86.852997"
"3364","Pensacola Regional Airport","Pensacola","United States","PNS","30.47340012","-87.18659973"
"3096","Supadio Airport","Pontianak","Indonesia","PNK","-0.150711","109.4039993"
"7818","EPHRATA MUNI","Ephrata","United States","EPH","47.3075","-119.5158"
"2148","Rota International Airport","Rota","Northern Mariana Islands","ROP","14.17430019","145.2429962"
"7735","Big Creek","Pilot Point","United States","BIC","57.66","-157.58"
"3834","Kingscote Airport","Kingscote","Australia","KGC","-35.71390152","137.5209961"
"2110","Faisalabad International Airport","Faisalabad","Pakistan","LYP","31.36499977","72.99479675"
"3066","Pitu Airport","Morotai Island","Indonesia","OTI","2.04598999","128.3249969"
"9077","Kinkungwa Airport","Kinkungwa","Democratic Republic Of The Congo","KLY","-2.578000069","26.73399925"
"9512","Madison Municipal Airport","Madison","United States","MDN","38.75889969","-85.46549988"
"10612","Ord River Airport","","","ODR","-17.34079933","128.9120026"
"8897","Méndez Airport","Chupianza","Ecuador","MZD","-2.733330011","-78.3167038"
"3072","Babo Airport","Babo","Indonesia","BXB","-2.532239914","133.4389954"
"10163","Sócrates Rezende Airport","","Brazil","CNV","-15.66699982","-38.95470047"
"814","Newcastle Airport","Newcastle","South Africa","NCS","-27.77059937","29.9769001"
"5155","Chaoyang Airport","Chaoyang","China","CHG","41.538101","120.434998"
"3245","Whiting Field Naval Air Station - North","Milton","United States","NSE","30.7241993","-87.02189636"
"629","Kristiansand Airport","Kristiansand","Norway","KRS","58.204201","8.08537"
"10137","Urrao Airport","","Colombia","URR","6.32883","-76.1425"
"7835","FRONT RANGE DENVER","Watkins","United States","FTG","39.7852","-104.5431"
"5043","Jiamusi Airport","Jiamusi","China","JMU","46.84339905","130.4649963"
"1171","Osijek Airport","Osijek","Croatia","OSI","45.46269989","18.81019974"
"5283","Naiu Airport","Niau","French Polynesia","NIU","-16.1191","-146.3683"
"10000","Paiela Airport","Orei","Papua New Guinea","PLE","-5.3725","142.9761111"
"4226","Inukjuak Airport","Inukjuak","Canada","YPH","58.47190094","-78.07689667"
"6646","Wilkes County Airport","North Wilkesboro","United States","IKB","36.22280121","-81.09829712"
"4067","Key Field","Meridian","United States","MEI","32.33259964","-88.75189972"
"5281","Tongren Fenghuang Airport","Tongren","China","TEN","27.883333","109.308889"
"3359","El Paso International Airport","El Paso","United States","ELP","31.80719948","-106.3779984"
"5140","Leon Airport","Leon","Spain","LEN","42.5890007","-5.655560017"
"2211","Oita Airport","Oita","Japan","OIT","33.47940063","131.7369995"
"4121","Ngorangora Airport","Kirakira","Solomon Islands","IRA","-10.44970036","161.897995"
"220","Cheikh Larbi Tébessi Airport","Tebessa","Algeria","TEE","35.43159866","8.12071991"
"3360","Valley International Airport","Harlingen","United States","HRL","26.22850037","-97.65440369"
"4143","Moro Airport","Moro","Papua New Guinea","MXH","-6.363329887","143.2380066"
"7791","  Chisana","Chisana","United States","CZN","62.0712","-142.0484"
"1334","Évreux-Fauville (BA 105) Air Base","Evreux","France","EVX","49.02870178","1.219859958"
"4605","Bahawalpur Airport","Bahawalpur","Pakistan","BHV","29.34810066","71.71800232"
"7932","Sao Joao Del Rei","","Brazil","JDR","-21.0863","-44.2263"
"2493","Tarauacá Airport","Tarauaca","Brazil","TRQ","-8.155260086","-70.78330231"
"5365","Astoria Regional Airport","Astoria","United States","AST","46.15800095","-123.8789978"
"1203","Reus Air Base","Reus","Spain","REU","41.1473999","1.167170048"
"2400","Comandante Gustavo Kraemer Airport","Bage","Brazil","BGX","-31.39049911","-54.11220169"
"10630","South Galway Airport","","","ZGL","-25.68330002","142.1080017"
"4576","Tongoa Airport","Tongoa Island","Vanuatu","TGH","-16.89109993","168.5509949"
"1007","Lisala Airport","Lisala","Congo (Kinshasa)","LIQ","2.17066","21.496901"
"2920","Nal Airport","Bikaner","India","BKB","28.07060051","73.2071991"
"9454","Fallon Municipal Airport","Fallon","United States","FLX","39.49909973","-118.7490005"
"10624","Roseberth Airport","","","RSB","-25.83329964","139.6499939"
"2125","Panjgur Airport","Panjgur","Pakistan","PJG","26.9545002","64.13249969"
"3318","Nantucket Memorial Airport","Nantucket","United States","ACK","41.25310135","-70.06020355"
"1428","Leros Airport","Leros","Greece","LRS","37.184898","26.800301"
"882","Bafoussam Airport","Bafoussam","Cameroon","BFX","5.536920071","10.35459995"
"4131","Buka Airport","Buka Island","Papua New Guinea","BUA","-5.422319889","154.6730042"
"2145","Palmyra Airport","Palmyra","Syria","PMS","34.5574","38.316898"
"5464","Kangiqsujuaq (Wakeham Bay) Airport","Kangiqsujuaq","Canada","YWB","61.58860016","-71.92939758"
"4250","Muskrat Dam Airport","Muskrat Dam","Canada","MSA","53.44139862","-91.76280212"
"9856","Chokwé Airport","Chokwé","Mozambique","TGS","-24.52059937","32.96530151"
"6207","Chautauqua County-Dunkirk Airport","Dunkirk","United States","DKK","42.49330139","-79.27200317"
"8036","MERCEDES","","Brazil","MDX","-29.2261","-53.0844"
"6620","Plínio Alarcom Airport","Tres Lagoas","Brazil","TJL","-20.75419998","-51.68420029"
"6870","Banning Municipal Airport","Banning","United States","BNG","33.92309952","-116.8509979"
"2972","Kadapa Airport","Cuddapah","India","CDP","14.51","78.772778"
"1478","Decimomannu Air Base","Decimomannu","Italy","DCI","39.354198","8.97248"
"10339","Maafaru International Airport","Maafaru","Maldives","NMF","5.818394","73.469181"
"2776","Khabarovsk-Novy Airport","Khabarovsk","Russia","KHV","48.52799988","135.1880035"
"1162","Plovdiv International Airport","Plovdiv","Bulgaria","PDV","42.067799","24.8508"
"7707","Alitak","Akhiok","United States","ALZ","56.8958","-154.2458"
"6670","Lindu Airport","Yinchun","China","LDS","47.75205556","129.019125"
"9086","Luiza Airport","Luiza","Democratic Republic Of The Congo","LZA","-7.183000088","22.39999962"
"2662","Rodríguez Ballón International Airport","Arequipa","Peru","AQP","-16.34110069","-71.58309937"
"4439","Arnold Palmer Regional Airport","Latrobe","United States","LBE","40.27590179","-79.40480042"
"10052","Tambillos Airport","","Chile","COW","-30.198889","-71.246944"
"9873","Nangade Airport","Nangade","Mozambique","NND","-11.073","39.68"
"6463","Inverell Airport","Inverell","Australia","IVR","-29.88829994","151.1439972"
"2666","Cadete FAP Guillermo Del Castillo Paredes Airport","Tarapoto","Peru","TPP","-6.508739948","-76.37319946"
"6856","Bay City Municipal Airport","Bay City","United States","BBC","28.97330093","-95.8635025"
"10072","Sissano Airport","Sissano","Papua New Guinea","SIZ","-2.999444444","142.0445"
"9810","Atizapan de Zaragoza Airport","Ciudad López Mateos","Mexico","AZP","19.5748","-99.288803"
"4872","Birdsville Airport","Birdsville","Australia","BVI","-25.89749908","139.3480072"
"9561","Maury County Airport","Mount Pleasant","United States","MRC","35.55410004","-87.17890167"
"4577","Uléi Airport","Ambryn Island","Vanuatu","ULB","-16.3297","168.3011"
"9205","Anggi Airport","","Indonesia","AGD","-1.3858","133.8737"
"1317","Marseille Provence Airport","Marseille","France","MRS","43.43927192","5.221424103"
"6408","Pecos Municipal Airport","Pecos","United States","PEQ","31.38240051","-103.5110016"
"10019","Taean Airport","Taean-Gun","South Korea","QDY","36.59453","126.295803"
"255","San Pedro Airport","San Pedro","Cote d'Ivoire","SPY","4.746719837","-6.660820007"
"9524","Triangle North Executive Airport","Louisburg","United States","LFN","36.0233","-78.330299"
"9244","Ioma Airport","Ioma","Papua New Guinea","IOP","-8.3614","147.84"
"5546","Araguaína Airport","Araguaina","Brazil","AUX","-7.22787","-48.240501"
"5031","Luzhou Airport","Luzhou","China","LZO","28.85219955","105.3929977"
"9792","Jicalapa Airport","Jicalapa","Honduras","GUO","15.006111","-86.049164"
"4975","Changzhi Airport","Changzhi","China","CIH","36.247501","113.125999"
"9471","Gooding Municipal Airport","Gooding","United States","GNG","42.91719818","-114.7649994"
"10515","Glengyle Airport","","","GLG","-24.80830002","139.6000061"
"687","Mora Airport","Mora","Sweden","MXX","60.957901","14.5114"
"411","Lennart Meri Tallinn Airport","Tallinn-ulemiste International","Estonia","TLL","59.41329956","24.83279991"
"5347","Chadron Municipal Airport","Chadron","United States","CDR","42.83760071","-103.0950012"
"2835","Kurumoch International Airport","Samara","Russia","KUF","53.50490189","50.16429901"
"3432","Wright AAF (Fort Stewart)/Midcoast Regional Airport","Wright","United States","LIY","31.889099","-81.562303"
"1445","Skiros Airport","Skiros","Greece","SKU","38.96760178","24.48719978"
"1782","Los Cabos International Airport","San Jose Del Cabo","Mexico","SJD","23.15180016","-109.7210007"
"937","Lubango Airport","Lubango","Angola","SDD","-14.92469978","13.57499981"
"4385","Assiut International Airport","Asyut","Egypt","ATZ","27.04649925","31.01199913"
"9069","Terrace Bay Airport","Terrace Bay","Namibia","TCY","-19.9713","13.0249"
"9485","Stan Stamper Municipal Airport","Hugo","United States","HUJ","34.03480148","-95.54190063"
"8326","  Tapini","Tapini","Papua New Guinea","TPI","-8.35","146.983"
"6030","Ourilândia do Norte Airport","Ourilandia do Norte","Brazil","OIA","-6.763100147","-51.04990005"
"1770","Quetzalcóatl International Airport","Nuevo Laredo","Mexico","NLD","27.44389915","-99.57050323"
"6031","Redenção Airport","Redencao","Brazil","RDC","-8.033289909","-49.97990036"
"8023","  Qala I Naw","Qala-E-Naw","Afghanistan","LQN","34.9875","63.1183"
"1725","Ken Jones Airport","Port Antonio","Jamaica","POT","18.19879913","-76.53450012"
"4528","Nassau Paradise Island Airport","Nassau","Bahamas","PID","25.08300018","-77.30000305"
"10013","Arawa Airport","Arawa","Papua New Guinea","RAW","-6.220555556","155.5713889"
"6036","Carauari Airport","Carauari","Brazil","CAF","-4.871520042","-66.89749908"
"50","Estevan Airport","Estevan","Canada","YEN","49.21030045","-102.9660034"
"9982","Anguganak Airport","Yemnu","Papua New Guinea","AKG","-3.560504","142.217307"
"2937","Jaisalmer Airport","Jaisalmer","India","JSA","26.88870049","70.86499786"
"2205","Fukue Airport","Fukue","Japan","FUJ","32.66630173","128.8329926"
"8276","CHITOSE","Chitose","Japan","SPK","42.7944","141.6664"
"3742","Monterey Peninsula Airport","Monterey","United States","MRY","36.5870018","-121.8430023"
"9825","Mojica Airport","","Costa Rica","CSC","10.4307003","-85.17459869"
"1476","Sigonella Navy Air Base","Sigonella","Italy","NSY","37.401699","14.9224"
"3309","Jack Northrop Field Hawthorne Municipal Airport","Hawthorne","United States","HHR","33.922798","-118.334999"
"3190","Hangzhou Xiaoshan International Airport","Hangzhou","China","HGH","30.22949982","120.4339981"
"8381","Wenshan","Wenshan Zhuangzumiaozuzizhizhou","China","WNH","23.373","104.249"
"9073","Lusanga Airport","Yumbu-Yumbu","Democratic Republic Of The Congo","LUS","-4.800000191","18.71699905"
"6158","Tacoma Narrows Airport","Tacoma","United States","TIW","47.26789856","-122.5780029"
"8893","Deputatskiy Airport","Deputatskii","Russia","DPT","69.392503","139.890012"
"4953","Portland Airport","Portland","Australia","PTJ","-38.31809998","141.470993"
"2820","Turkmenbashi Airport","Krasnovodsk","Turkmenistan","KRW","40.063301","53.007198"
"4172","Whatì Airport","Whatì","Canada","YLE","63.13169861","-117.2460022"
"4634","Kalaupapa Airport","Molokai","United States","LUP","21.21100044","-156.973999"
"9913","Semnan Municipal Airport","Semnan","Iran","SNX","35.591099","53.495098"
"10086","Paratebueno Airport","","Colombia","EUO","4.383333","-73.2"
"4687","Sorocaba Airport","Sorocaba","Brazil","SOD","-23.478001","-47.490002"
"9138","Bemichi Airport","Santa Cruz","Guyana","BCG","7.699999809","-59.16666031"
"7578","Sayaboury Airport","Sainyabuli","Laos","ZBY","19.2436","101.7093"
"39","Clyde River Airport","Clyde River","Canada","YCY","70.48609924","-68.51670074"
"9694","Nephi Municipal Airport","Nephi","United States","NPH","39.73880005","-111.8720016"
"5641","Destin Executive Airport","Destin","United States","DSI","30.40010071","-86.47149658"
"7351","Erldunda Airport","Erldunda","Australia","EDD","-25.2057991","133.2539978"
"6632","Shreveport Downtown Airport","Shreveport","United States","DTN","32.54019928","-93.74500275"
"8522","Pine Island Airport","Corolla","United States","DUF","36.25350189","-75.78849792"
"4483","Banja Luka International Airport","Banja Luka","Bosnia and Herzegovina","BNX","44.94139862","17.29750061"
"3856","Funafuti International Airport","Funafuti","Tuvalu","FUN","-8.525","179.195999"
"2959","Janakpur Airport","Janakpur","Nepal","JKR","26.70879936","85.92240143"
"8375","CASTRO/GAMBOA","Castro","Chile","WCA","-42.485","-73.7722"
"9497","Hot Springs County Airport","Lucerne","United States","THP","43.713602","-108.389687"
"5683","Provo Municipal Airport","Provo","United States","PVU","40.21920013","-111.7229996"
"8636","Honinabi Airport","","","HNN","-16.2457","142.1771"
"2620","Vanguardia Airport","Villavicencio","Colombia","VVC","4.16787","-73.6138"
"10669","Warrawagine Airport","","","WRW","-20.84420013","120.7020035"
"4890","Cunnamulla Airport","Cunnamulla","Australia","CMA","-28.03000069","145.621994"
"9212","Kornasoren Airfield","","Indonesia","FOO","-0.936325014","134.871994"
"9372","Cairo Regional Airport","Cairo","United States","CIR","37.0644989","-89.21959686"
"4479","Sármellék International Airport","Sármellék","Hungary","SOB","46.686391","17.159084"
"6340","Duxford Aerodrome","Duxford","United Kingdom","QFO","52.090801","0.131944"
"9829","Moroak Airport","Flying Fox","Australia","MRT","-14.818133","133.700594"
"7555","Shirdi Airport","Shirdi","India","SAG","19.688611","74.378889"
"3352","Joint Base Andrews","Camp Springs","United States","ADW","38.810799","-76.866997"
"3087","Pinang Kampai Airport","Dumai","Indonesia","DUM","1.60919","101.433998"
"4477","Pécs-Pogány Airport","Pécs-Pogány","Hungary","PEV","45.990898","18.240996"
"7044","Mangochi Airport","Mangochi","Malawi","MAI","-14.4829998","35.26699829"
"1835","Jacmel Airport","Jacmel","Haiti","JAK","18.24110031","-72.51850128"
"10631","Shay Gap Airport","","","SGP","-20.42469978","120.1409988"
"4093","Novy Urengoy Airport","Novy Urengoy","Russia","NUX","66.06939697","76.52030182"
"10270","Tapeta Airport","Tapeta","Liberia","TPT","6.4948","-8.873"
"5837","Camp Bastion Airport","Camp Bastion","Afghanistan","OAZ","31.86380005","64.22460175"
"5313","Spirit of St Louis Airport","Null","United States","SUS","38.66210175","-90.65200043"
"4323","Tambohorano Airport","Tambohorano","Madagascar","WTA","-17.47610092","43.97280121"
"6467","Maranggo Airport","Sulawesi Tenggara","Indonesia","TQQ","-5.764570236","123.9169998"
"2027","Aghajari Airport","Aghajari","Iran","AKW","30.7444","49.6772"
"8600","Camballin Airport","Myroodah","Australia","MYO","-18.12470055","124.2720032"
"8008","LIMON MUNI","Limon","United States","LIC","39.2728","-103.6664"
"8882","Ferkessedougou Airport","Ferkessédougou","Côte D'Ivoire","FEK","9.6","-5.1833333"
"631","Bardufoss Airport","Bardufoss","Norway","BDU","69.05580139","18.54039955"
"2066","Shahroud Airport","Emam Shahr","Iran","RUD","36.4253006","55.10419846"
"1049","Mohammed V International Airport","Casablanca","Morocco","CMN","33.36750031","-7.589970112"
"8009","XXX","","","LIK","9.8167","169.3167"
"8063","MONTE ALEGRE","","Brazil","MTE","-1.9964","-54.0708"
"2212","Kitakyūshū Airport","Kitakyushu","Japan","KKJ","33.84590149","131.0350037"
"10069","Safia Airport","Safia","Papua New Guinea","SFU","-9.593055556","148.6361111"
"3040","Myeik Airport","Myeik","Burma","MGZ","12.43980026","98.62149811"
"8236","Marinda","","Indonesia","RJM","-0.4255","130.7758"
"2647","Capitan FAP Jose A Quinones Gonzales International Airport","Chiclayo","Peru","CIX","-6.787479877","-79.82810211"
"5349","Mc Cook Ben Nelson Regional Airport","McCook","United States","MCK","40.20629883","-100.5920029"
"10165","Currais Novos Airport","","Brazil","QCP","-6.280832767","-36.54027939"
"3262","Boone County Airport","Harrison","United States","HRO","36.26150131","-93.15470123"
"8526","Reese Airpark","Reese Center","United States","REE","33.59030151","-102.0370026"
"3672","Casper-Natrona County International Airport","Casper","United States","CPR","42.908001","-106.463997"
"9136","Agostinho Neto Airport","Ponta Do Sol","Cape Verde","NTO","17.20280075","-25.09059906"
"8314","THAKHEK","Thakhek","Laos","THK","17.3969","104.8067"
"2534","Pichoy Airport","Valdivia","Chile","ZAL","-39.65000153","-73.08609772"
"10504","Exmouth Airport","North West Cape","Australia","EXM","-22.0333004","114.0999985"
"4855","Kudat Airport","Kudat","Malaysia","KUD","6.922500134","116.8359985"
"6407","Mattala Rajapaksa International Airport","Mattala","Sri Lanka","HRI","6.284467","81.124128"
"5632","Chakcharan Airport","Chaghcharan","Afghanistan","CCN","34.53300095","65.26699829"
"10322","Gurue Airport","Gurue","Mozambique","VJQ","-15.5062","36.9904"
"7400","St. Helena Airport","Longwood","United Kingdom","HLE","-15.957725","-5.645943"
"7182","Juan Simons Vela Airport","Rioja","Peru","RIJ","-6.067860126","-77.16000366"
"2598","Benito Salas Airport","Neiva","Colombia","NVA","2.95015","-75.294"
"3140","Albury Airport","Albury","Australia","ABX","-36.06779861","146.9579926"
"2323","San Fernando Airport","San Fernando","Argentina","FDO","-34.4532","-58.5896"
"2853","Kandla Airport","Kandla","India","IXY","23.1127","70.100304"
"9263","Council Airport","Council","United States","CIL","64.89790344","-163.7030029"
"7117","Teruel Airport","Teruel","Spain","TEV","40.403","-1.2183"
"5048","Mount Keith Airport","Mount Keith","Australia","WME","-27.28639984","120.5550003"
"10104","Solita Airport","","","SOH","3.016667","-71.75"
"9113","Tchien Airport","Zwedru","Liberia","THC","6.04565","-8.138723"
"10647","Tobermorey Airport","","","TYP","-22.25580025","137.9530029"
"3912","Diosdado Macapagal International Airport","Angeles City","Philippines","CRK","15.186","120.559998"
"9739","Belluno Airport","","Italy","BLX","46.166549","12.250389"
"2794","Pulkovo Airport","St. Petersburg","Russia","LED","59.8003006","30.26250076"
"10607","Oenpelli Airport","Gunbalanya","Australia","OPI","-12.32499981","133.0059967"
"3995","Aklavik/Freddie Carmichael Airport","Aklavik","Canada","LAK","68.223297","-135.00599"
"3700","Pondok Cabe Air Base","Jakarta","Indonesia","PCB","-6.336959839","106.7649994"
"1399","Strasbourg Airport","Strasbourg","France","SXB","48.53829956","7.628230095"
"8421","TIKRIT/AL SAHRA AAF","Tikrit","Iraq","XTV","34.6732","43.543"
"9763","Ponikve Airport","Zlodol","Serbia","UZC","43.898899","19.697701"
"2190","Hakodate Airport","Hakodate","Japan","HKD","41.77000046","140.8220062"
"4338","Mouilla Ville Airport","Mouila","Gabon","MJL","-1.84513998","11.05669975"
"7819","Wildman Lake","","","EWD","56.45","-159.76"
"4659","Sanga Sanga Airport","Sanga Sanga","Philippines","TWT","5.046991","119.742996"
"2201","Okushiri Airport","Okushiri","Japan","OIR","42.07170105","139.4329987"
"8619","Doini Airport","Sideia I","Papua New Guinea","DOI","-10.7009","150.7218"
"555","RAF Brize Norton","Brize Norton","United Kingdom","BZZ","51.75","-1.58362"
"6313","Lompoc Airport","Lompoc","United States","LPC","34.66559982","-120.4680023"
"4724","Kokshetau Airport","Kokshetau","Kazakhstan","KOV","53.329102","69.594597"
"4773","Nyagan Airport","Nyagan","Russia","NYA","62.110001","65.614998"
"6492","Sikeston Memorial Municipal Airport","Sikeston","United States","SIK","36.89889908","-89.5617981"
"602","Esbjerg Airport","Esbjerg","Denmark","EBJ","55.525902","8.5534"
"10668","Wee Waa Airport","Wee Waa","Australia","WEW","-30.25830078","149.4080048"
"10485","Daly River Airport","Nauiyu","Australia","DVR","-13.7498064","130.6938782"
"135","Nanisivik Airport","Nanisivik","Canada","YSR","72.982201","-84.613602"
"8447","LAC LA BICHE","Lac La Biche","Canada","YLB","54.7703","-112.0317"
"3826","The Eastern Iowa Airport","Cedar Rapids","United States","CID","41.88470078","-91.71080017"
"8529","Marlboro Airport","Marlborough","United States","MXG","42.343201","-71.509002"
"1373","Lorient South Brittany (Bretagne Sud) Airport","Lorient","France","LRT","47.76060104","-3.440000057"
"4379","Alula Airport","Alula","Somalia","ALU","11.9582","50.748"
"2100","Dubai International Airport","Dubai","United Arab Emirates","DXB","25.25279999","55.36439896"
"2058","Bandar Abbas International Airport","Bandar Abbas","Iran","BND","27.21829987","56.37779999"
"1242","Angoulême-Brie-Champniers Airport","Angouleme","France","ANG","45.72919846","0.221456006"
"10550","Lawn Hill Airport","","","LWH","-18.56830025","138.6349945"
"10509","Gamboola Airport","Wrotham","Australia","GBP","-16.54999924","143.6670074"
"2030","Omidiyeh Airport","Omidyeh","Iran","OMI","30.83519936","49.53490067"
"383","Burg Feuerstein Airport","Burg Feuerstein","Germany","URD","49.79416656","11.13361073"
"3028","Tan Son Nhat International Airport","Ho Chi Minh City","Vietnam","SGN","10.81879997","106.6520004"
"8889","Tabou Airport","Tabou","Côte D'Ivoire","TXU","4.437809467","-7.362728119"
"1771","Xoxocotlán International Airport","Oaxaca","Mexico","OAX","16.99990082","-96.72660065"
"1595","Humberto Delgado Airport (Lisbon Portela Airport)","Lisbon","Portugal","LIS","38.7813","-9.13592"
"2228","Okayama Airport","Okayama","Japan","OKJ","34.75690079","133.8549957"
"1387","EuroAirport Basel-Mulhouse-Freiburg Airport","Mulhouse","France","BSL","47.59","7.5291667"
"8690","Tarakbits Airport","Tarakbits","Papua New Guinea","TRJ","-5.614","141.0421"
"5177","Taree Airport","Taree","Australia","TRO","-31.8885994","152.5140076"
"4513","Aerotortuguero Airport","Roxana","Costa Rica","TTQ","10.42","-83.6095"
"2773","Yakutsk Airport","Yakutsk","Russia","YKS","62.09329987","129.7709961"
"9496","Billy Mitchell Airport","Frisco","United States","HNC","35.23279953","-75.61779785"
"750","Flugplatz Kitzingen","Kitzingen","Germany","KZG","49.743099","10.2006"
"1078","Rabil Airport","Boa Vista","Cape Verde","BVC","16.1364994","-22.88890076"
"6441","Bijie Feixiong Airport","Bijie","China","BFJ","27.267066","105.472097"
"1391","Épinal-Mirecourt Airport","Epinal","France","EPL","48.325001","6.06998"
"5866","Hastings Airport","Freetown","Sierra Leone","HGS","8.397130013","-13.12909985"
"10659","Windarling Airport","","","WRN","-30.031667","119.39"
"2615","Gustavo Vargas Airport","Tame","Colombia","TME","6.45108","-71.7603"
"7889","ICABARU","Icabaru","Venezuela","ICA","4.3333","-61.7333"
"1591","Pico Airport","Pico","Portugal","PIX","38.554298","-28.441299"
"2630","Juana Azurduy De Padilla Airport","Sucre","Bolivia","SRE","-19.00709915","-65.28869629"
"8510","Ed-Air Airport","Oaktown","United States","OTN","38.85139847","-87.49970245"
"10629","Singleton Airport","Whittingham","Australia","SIX","-32.600832","151.193056"
"613","Skive Airport","Skive","Denmark","SQW","56.55020142","9.172980309"
"3534","Ontario International Airport","Ontario","United States","ONT","34.05599976","-117.6009979"
"10603","Nullabor Motel Airport","Nullarbor","Australia","NUR","-31.44169998","130.9019928"
"10164","Guadalupe Airport","","Brazil","GDP","-6.782219887","-43.5821991"
"3720","Selaparang Airport","Mataram","Indonesia","AMI","-8.560709953","116.0950012"
"9648","Rexburg Madison County Airport","Rexburg","United States","RXE","43.8339","-111.805002"
"4414","Bradford Regional Airport","Bradford","United States","BFD","41.80310059","-78.64009857"
"6458","Cochrane Airport","Cochrane","Canada","YCN","49.10559845","-81.01360321"
"4107","Longjia Airport","Changchun","China","CGQ","43.99620056","125.6849976"
"2456","João Correa da Rocha Airport","Maraba","Brazil","MAB","-5.368589878","-49.13800049"
"8505","Dunsmuir Muni-Mott Airport","Mount Shasta","United States","MHS","41.263199","-122.272003"
"4417","Brunswick Golden Isles Airport","Brunswick","United States","BQK","31.25880051","-81.46649933"
"8979","Ngoma Airport","Ngoma","Zambia","ZGM","-15.96580029","25.93330002"
"2236","Tokushima Airport/JMSDF Air Base","Tokushima","Japan","TKS","34.132801","134.606995"
"6050","Hotel Transamérica Airport","Una","Brazil","UNA","-15.35519981","-38.99900055"
"7943","NJOMBE","Njombe","Tanzania","JOM","-9.35","34.8"
"10399","Muhammad Taufiq Kiemas Airport","","Indonesia","TFY","-5.211562","103.936501"
"4487","Kahramanmaraş Airport","Kahramanmaras","Turkey","KCM","37.53882599","36.95352173"
"6769","Hechi Jinchengjiang Airport","Hechi","China","HCJ","24.805","107.6997"
"4467","Victoria Regional Airport","Victoria","United States","VCT","28.8526001","-96.91850281"
"10413","Wasua Airport","Dede","Papua New Guinea","WSA","-8.2836","142.8697"
"8164","ARNHEIM/DEELEN","Hoenderloo","Netherlands","QAR","52.0597","5.8722"
"8813","Las Cruces Airport","","Colombia","SNT","7.38322","-73.505402"
"6667","Saertu Airport","Daqing","China","DQA","46.74638889","125.1405556"
"2328","Chos Malal Airport","Chosmadal","Argentina","HOS","-37.44469833","-70.22250366"
"1498","Treviso-Sant'Angelo Airport","Treviso","Italy","TSF","45.648399","12.1944"
"3977","Nelson Ribeiro Guimarães Airport","Caldas Novas","Brazil","CLV","-17.72529984","-48.60749817"
"1915","Takapoto Airport","Takapoto","French Polynesia","TKP","-14.70950031","-145.2460022"
"9828","San Isidro del General Airport","San Isidro De El General","Costa Rica","IPZ","9.35262","-83.713097"
"8200","SAO BORJA","Santo Tomé","Argentina","QOJ","-28.5025","-56.0322"
"1806","Puerto Cabezas Airport","Puerto Cabezas","Nicaragua","PUZ","14.0472002","-83.38670349"
"526","Aberdeen Dyce Airport","Aberdeen","United Kingdom","ABZ","57.20190048","-2.197779894"
"4153","Qeqertarsuaq Heliport","Qeqertarsuaq Airport","Greenland","JGO","69.25118199","-53.51487637"
"2056","Qazvin Airport","Ghazvin","Iran","GZW","36.240101","50.0471"
"10455","Caiguna Airport","","","CGV","-32.26499939","125.4929962"
"1990","Al Ahsa Airport","Al-ahsa","Saudi Arabia","HOF","25.2852993","49.48519897"
"4870","Barcaldine Airport","Barcaldine","Australia","BCI","-23.56529999","145.3070068"
"4840","Tanjung Harapan Airport","Tanjung Selor-Borneo Island","Indonesia","TJS","2.835833333","117.3736111"
"8268","  Suki","Suki","Papua New Guinea","SKC","-8.033","141.717"
"914","Vohimarina Airport","Vohemar","Madagascar","VOH","-13.37580013","50.00279999"
"3980","Bundaberg Airport","Bundaberg","Australia","BDB","-24.90390015","152.3190002"
"3556","Palmdale Regional/USAF Plant 42 Airport","Palmdale","United States","PMD","34.62939835","-118.0849991"
"1767","General Mariano Escobedo International Airport","Monterrey","Mexico","MTY","25.7784996","-100.1070023"
"4889","Cooktown Airport","Cooktown","Australia","CTN","-15.44470024","145.1840057"
"8842","Dathina Airport","Al Qaws","Yemen","DAH","13.866884","46.133473"
"5675","Bathurst Island Airport","Bathurst Island","Australia","BRT","-11.76920033","130.6199951"
"4395","Nyala Airport","Nyala","Sudan","UYL","12.05350018","24.95619965"
"10513","Ginbata Airport","","","GBW","-22.5812","120.03553"
"4765","Aleknagik / New Airport","Aleknagik","United States","WKK","59.2826004","-158.6179962"
"8720","Bongo Airport","Bongo","Gabon","BGP","-2.1713","10.2088"
"10011","Puerto La Victoria Airport","Cerro Morado","Paraguay","PCJ","-22.295041","-57.866333"
"10534","Injune Airport","Injune","Australia","INJ","-25.851","148.5497"
"1480","Olbia Costa Smeralda Airport","Olbia","Italy","OLB","40.898701","9.51763"
"9352","Brawley Municipal Airport","Brawley","United States","BWC","32.99290085","-115.5169983"
"9094","Kenieba Airport","Kéniéba","Mali","KNZ","12.83300018","-11.25"
"598","Waterford Airport","Waterford","Ireland","WAT","52.18719864","-7.086959839"
"3365","Grand Forks Air Force Base","Red River","United States","RDR","47.96110153","-97.40119934"
"638","Kristiansund Airport (Kvernberget)","Kristiansund","Norway","KSU","63.11180115","7.824520111"
"172","London Airport","London","Canada","YXU","43.035599","-81.1539"
"7169","Barriles Airport","Tocopilla","Chile","TOQ","-22.14109993","-70.06289673"
"4225","Oxford House Airport","Oxford House","Canada","YOH","54.93330002","-95.27890015"
"278","Tahoua Airport","Tahoua","Niger","THZ","14.8757","5.265359879"
"735","Spangdahlem Air Base","Spangdahlem","Germany","SPM","49.97269821","6.692500114"
"1342","Laval-Entrammes Airport","Laval","France","LVA","48.03139877","-0.742986023"
"9448","Fresno Chandler Executive Airport","Fresno","United States","FCH","36.732399","-119.82"
"430","Kauhajoki Airport","Kauhajoki","Finland","KHJ","62.46250153","22.39310074"
"5364","Orcas Island Airport","Eastsound","United States","ESD","48.70819855","-122.9100037"
"5496","Charlotte Amalie Harbor Seaplane Base","Charlotte Amalie","Virgin Islands","SPB","18.33860016","-64.94069672"
"1930","Lifou Airport","Lifou","New Caledonia","LIF","-20.77479935","167.2400055"
"730","Linköping City Airport","Linkoeping","Sweden","LPI","58.40620041","15.68050003"
"6076","Barrow County Airport","Winder","United States","WDR","33.98289871","-83.66739655"
"2074","Khoy Airport","Khoy","Iran","KHY","38.42750168","44.97359848"
"7137","King Salman Abdulaziz Airport","","Saudi Arabia","DWD","24.4499","44.121201"
"2243","Hachinohe Airport","Hachinoe","Japan","HHE","40.5564003","141.4660034"
"4115","Shun Tak Heliport","Hong Kong","Hong Kong","HHP","22.28937149","114.152153"
"9476","Goshen Municipal Airport","Goshen","United States","GSH","41.52640152","-85.79290009"
"5679","Halls Creek Airport","Halls Creek","Australia","HCQ","-18.23390007","127.6699982"
"10505","Finley Airport","Finley","Australia","FLY","-35.66669846","145.5500031"
"7489","Urzhar Airport","Urzhar","Kazakhstan","UZR","47.09115","81.66521"
"7263","Hay Airport","","Australia","HXX","-34.53139877","144.8300018"
"2429","Fernando de Noronha Airport","Fernando Do Noronha","Brazil","FEN","-3.85493","-32.423302"
"10665","Wollogorang Airport","","","WLL","-17.2199","137.93453"
"4554","Maota Airport","Savaii Island","Samoa","MXS","-13.74230003","-172.2579956"
"3216","Hilo International Airport","Hilo","United States","ITO","19.72139931","-155.0480042"
"423","Kitee Airport","Kitee","Finland","KTQ","62.1661","30.073601"
"10261","Tabal Airstrip","","Marshall Islands","TBV","8.3027","171.1615"
"9735","Les Sables-d'Olonne Talmont Airport","Les Sables-D'Olonne","France","LSO","46.47689819","-1.722779989"
"1839","Maximo Gomez Airport","Ciego De Avila","Cuba","AVI","22.02709961","-78.78959656"
"10076","Arboletes Airport","Arboletes","Colombia","ARO","8.85705","-76.4244"
"2475","Senador Nilo Coelho Airport","Petrolina","Brazil","PNZ","-9.362409592","-40.56909943"
"6173","Grabtsevo Airport","Kaluga","Russia","KLF","54.54999924","36.3666687"
"6351","Moomba Airport","Moomba","Australia","MOO","-28.09939957","140.1970062"
"8233","Red Devil","Red Devil","United States","RDV","61.7881","-157.3503"
"5324","Interlaken Air Base","Interlaken","Switzerland","ZIN","46.6766014","7.8790798"
"2781","Yuzhno-Sakhalinsk Airport","Yuzhno-sakhalinsk","Russia","UUS","46.88869858","142.7180023"
"10373","Ngloram Airport","","Indonesia","CPF","-7.194841667","111.5481667"
"1196","Adolfo Suárez Madrid–Barajas Airport","Madrid","Spain","MAD","40.471926","-3.56264"
"1926","Raiatea Airport","Raiatea Island","French Polynesia","RFP","-16.7229","-151.466003"
"5710","Santa Ana Airport","Santa Ana","Solomon Islands","NNB","-10.847994","162.454108"
"2688","Carora Airport","Carora","Venezuela","VCR","10.17560291","-70.06521606"
"9677","Perry Stokes Airport","Hoehne","United States","TAD","37.25939941","-104.3410034"
"6688","Betoambari Airport","Bau-Bau","Indonesia","BUW","-5.486879826","122.5690002"
"10576","Monkira Airport","","","ONR","-24.81669998","140.5330048"
"7688","Rustaq Airport","Al Masna'ah","Oman","MNH","23.640556","57.4875"
"10498","Elkedra Airport","","","EKD","-21.17250061","135.4440002"
"3722","Umbu Mehang Kunda Airport","Waingapu","Indonesia","WGP","-9.66922","120.302002"
"8859","Fada N'gourma Airport","Fada-Ngourma","Burkina Faso","FNG","12.03299999","0.349999994"
"9970","Presidente José Sarney Airport","","Brazil","PDR","-5.3098","-44.481"
"4485","Kars Airport","Kars","Turkey","KSY","40.56219864","43.11500168"
"6325","Sondok Airport","Hamhung","North Korea","DSO","39.745201","127.473999"
"2823","Bukhara Airport","Bukhara","Uzbekistan","BHK","39.77500153","64.48329926"
"10456","Coolah Airport","Coolah","Australia","CLH","-31.77330017","149.6100006"
"10462","Cape Flattery Airport","Hope Vale","Australia","CQP","-14.970832","145.311667"
"8091","Nunapitchuk","Nunapitchuk","United States","NUP","60.9058","-162.4391"
"2694","El Dorado Airport","El Dorado","Venezuela","EOR","6.733333111","-61.58333206"
"4389","Nanyuki Airport","Nanyuki","Kenya","NYK","-0.062398899","37.041008"
"5310","Prince Rupert/Seal Cove Seaplane Base","Prince Rupert","Canada","ZSW","54.33330154","-130.2830048"
"10304","Neftekamsk Airport","Neftekamsk","Russia","NEF","56.10689926","54.34719849"
"6277","Dikson Airport","Dikson","Russia","DKS","73.51780701","80.37966919"
"9159","Haibei Qilian Airport","Haibei Zangzuzizhizhou","China","HBQ","38.012","100.644"
"1157","Entebbe International Airport","Entebbe","Uganda","EBB","0.042386","32.443501"
"7002","Port Hawkesbury Airport","Port Hawkesbury","Canada","YPS","45.65670013","-61.36809921"
"4860","Sintang(Susilo) Airport","Sintang-Borneo Island","Indonesia","SQG","0.063619003","111.4729996"
"4585","Ipota Airport","Ipota","Vanuatu","IPA","-18.856389","169.283333"
"3491","Laredo International Airport","Laredo","United States","LRD","27.54380035","-99.46160126"
"10219","Armando Schwarck Airport","Los Pijiguaos","Venezuela","LPJ","6.578050137","-66.81690216"
"977","Faya Largeau Airport","Faya-largeau","Chad","FYT","17.91710091","19.11109924"
"6134","Lombok International Airport","Praya","Indonesia","LOP","-8.757322","116.276675"
"9614","La Porte Municipal Airport","La Porte","United States","LPO","41.57249832","-86.73449707"
"3292","Huron Regional Airport","Huron","United States","HON","44.3852005","-98.22850037"
"1977","Wanganui Airport","Wanganui","New Zealand","WAG","-39.96220016","175.0249939"
"6515","Johnson County Executive Airport","Olathe","United States","OJC","38.84759903","-94.73760223"
"3923","Kanti Airport","Khamti","Burma","KHM","25.98830032","95.67440033"
"4657","Camiguin Airport","Camiguin","Philippines","CGM","9.253520012","124.7070007"
"8806","Caia Airport","Caia","Mozambique","CMZ","-17.8331","35.3341"
"6873","Karl Stefan Memorial Airport","Norfolk  Nebraska","United States","OFK","41.98550034","-97.43509674"
"83","Meadow Lake Airport","Meadow Lake","Canada","YLJ","54.12530136","-108.5230026"
"9335","Brookings Regional Airport","Brookings","United States","BKX","44.304798","-96.816902"
"3833","Manhattan Regional Airport","Manhattan","United States","MHK","39.14099884","-96.67079926"
"7278","Wangaratta Airport","","Australia","WGT","-36.41579819","146.3070068"
"91","Maniwaki Airport","Maniwaki","Canada","YMW","46.27280045","-75.99060059"
"9892","Kaikohe Airport","Kaikohe","New Zealand","KKO","-35.4510994","173.8170013"
"3104","Sultan Abdul Halim Airport","Alor Setar","Malaysia","AOR","6.189670086","100.3980026"
"1958","Palmerston North Airport","Palmerston North","New Zealand","PMR","-40.3205986","175.6170044"
"8958","Batangafo Airport","Batangafo","Central African Republic","BTG","7.314109802","18.30879974"
"10162","Colatina Airport","","Brazil","QCH","-19.48699951","-40.57939911"
"9939","Andre Maggi Airport","","Brazil","OTT","-9.898611","-58.581944"
"9218","Kon Airport","Com","Timor-Leste","KCI","-8.349193","127.050793"
"8473","Delma Island","","","ZDY","24.5031","52.3358"
"2667","Coronel FAP Carlos Ciriani Santa Rosa International Airport","Tacna","Peru","TCQ","-18.05330086","-70.27580261"
"1525","Perugia San Francesco d'Assisi – Umbria International Airport","Perugia","Italy","PEG","43.095901","12.5132"
"8302","TSHABONG","Tshabong","Botswana","TBY","-26.0667","22.4667"
"3769","Ataq Airport","Ataq","Yemen","AXK","14.55130005","46.82619858"
"4034","Ratanakiri Airport","Ratanakiri","Cambodia","RBE","13.72999954","106.9869995"
"8901","Abu Rudeis Airport","","","AUE","28.89900017","33.20249939"
"7772","Chicken","Chicken","United States","CKX","64.0713","-141.9523"
"619","Aalborg Airport","Aalborg","Denmark","AAL","57.09275891","9.849243164"
"9345","Britton Municipal Airport","Britton","United States","TTO","45.81520081","-97.74310303"
"4782","Andizhan Airport","Andizhan","Uzbekistan","AZN","40.72769928","72.29399872"
"3654","Cold Bay Airport","Cold Bay","United States","CDB","55.20610046","-162.7250061"
"3831","Rochester International Airport","Rochester","United States","RST","43.90829849","-92.5"
"3169","Wagga Wagga City Airport","Wagga Wagga","Australia","WGA","-35.16529846","147.4660034"
"7273","Smithton Airport","","Australia","SIO","-40.83499908","145.0839996"
"6282","Alldays Airport","Alldays","South Africa","ADY","-22.67900085","29.05550003"
"4948","Gove Airport","Gove","Australia","GOV","-12.26939964","136.8179932"
"4917","Lord Howe Island Airport","Lord Howe Island","Australia","LDH","-31.53829956","159.0769959"
"8041","MILANO/BRESSO","","Italy","MIL","45.5406","9.2022"
"4701","Capitán Av. Selin Zeitun Lopez Airport","Riberalta","Bolivia","RIB","-11.0","-66.0"
"3872","Hawke's Bay Airport","NAPIER","New Zealand","NPE","-39.465801","176.869995"
"10572","Minlaton Airport","Minlaton","Australia","XML","-34.75","137.5330048"
"10617","Penong Airport","Penong","Australia","PEY","-31.91670036","133.0"
"1486","Turin Airport","Torino","Italy","TRN","45.200802","7.64963"
"9388","Creston Municipal Airport","Creston","United States","CSQ","41.02140045","-94.36329651"
"3950","Surkhet Airport","Surkhet","Nepal","SKH","28.586","81.636002"
"4455","Portsmouth International at Pease Airport","Portsmouth","United States","PSM","43.07789993","-70.82330322"
"3927","Cà Mau Airport","Ca Mau","Vietnam","CAH","9.177667","105.177778"
"10427","Augustus Downs Airport","","","AUD","-18.51499939","139.878006"
"3224","Tatalina LRRS Airport","Tatalina","United States","TLJ","62.89440155","-155.977005"
"3766","Ta'izz International Airport","Taiz","Yemen","TAI","13.68599987","44.13909912"
"9725","Bukhovtsi Airfield","Targovishte","Bulgaria","TGV","43.30659866","26.70089912"
"5649","Lintsang Airfield","Lincang","China","LNJ","23.73810005","100.0250015"
"5776","Lakeland Linder International Airport","Lakeland","United States","LAL","27.988899","-82.018602"
"8252","Saatut","Saattut","Greenland","SAE","70.8117","-51.6333"
"9118","Boutilimit Airport","Boutilimit","Mauritania","OTL","17.53300095","-14.68299961"
"3837","Mulu Airport","Mulu","Malaysia","MZV","4.04832983","114.8050003"
"6360","Lošinj Island Airport","Mali Losinj","Croatia","LSZ","44.56579971","14.39309978"
"10213","Santa Vitória do Palmar Airport","","Brazil","CTQ","-33.50222397","-53.3441658"
"6060","Westfield-Barnes Regional Airport","Westfield","United States","BAF","42.157799","-72.715599"
"7424","Boun Neau Airport","Phongsaly","Laos","PCQ","21.6475","101.9"
"980","Buffalo Range Airport","Chiredzi","Zimbabwe","BFO","-21.008101","31.5786"
"5182","Delta County Airport","Escanaba","United States","ESC","45.72269821","-87.09369659"
"6985","Centralia / James T. Field Memorial Aerodrome","Centralia","Canada","YCE","43.285599","-81.508301"
"7743","Bellona","Peka","Solomon Islands","BNY","-11.3022","159.7981"
"906","Ambilobe Airport","Ambilobe","Madagascar","AMB","-13.18840027","48.98799896"
"249","Takoradi Airport","Takoradi","Ghana","TKD","4.89605999","-1.774760008"
"4446","Muskegon County Airport","Muskegon","United States","MKG","43.16949844","-86.23819733"
"7434","Palenque International Airport","Palenque","Mexico","PQM","17.533153","-92.015484"
"4743","Kryvyi Rih International Airport","Krivoy Rog","Ukraine","KWG","48.04330063","33.20999908"
"79","Schefferville Airport","Schefferville","Canada","YKL","54.80530167","-66.80529785"
"8180","GUAIRA","","Brazil","QGA","-24.0792","-54.1875"
"10275","Dongsha Island (Pratas Island) Airport","","","DSX","20.7066","116.721001"
"7138","King Khaled Air Base","","Saudi Arabia","KMX","18.29730034","42.80350113"
"9149","Nejjo Airport","Jarso","Ethiopia","NEJ","9.55","35.466995"
"4903","Griffith Airport","Griffith","Australia","GFF","-34.25080109","146.0670013"
"4427","Chippewa Valley Regional Airport","Eau Claire","United States","EAU","44.86579895","-91.48429871"
"2469","Oiapoque Airport","Oioiapoque","Brazil","OYK","3.855489969","-51.7969017"
"2117","Mangla Airport","Mangla","Pakistan","XJM","33.05009842","73.63839722"
"6933","Sawan Airport","Sindh","Pakistan","RZS","26.9662","68.878098"
"10542","Streaky Bay Airport","Streaky Bay","Australia","KBY","-32.83580017","134.2929993"
"9513","Kira Airport","Tiwa","Papua New Guinea","KIQ","-8.065111111","147.3320278"
"10005","Param Airport","Nepesi","Papua New Guinea","PPX","-9.99","149.477"
"4434","Tri-State/Milton J. Ferguson Field","Huntington","United States","HTS","38.36669922","-82.55799866"
"10336","Kurnool Airport","Kannamadakala","India","KJB","15.716288","78.16923"
"2421","Marechal Rondon Airport","Cuiaba","Brazil","CGB","-15.65289974","-56.11669922"
"5563","Tsletsi Airport","Djelfa","Algeria","QDJ","34.6657","3.351"
"548","Oxford (Kidlington) Airport","Oxford","United Kingdom","OXF","51.8368988","-1.320000052"
"874","Sir Charles Gaetan Duval Airport","Rodriguez Island","Mauritius","RRG","-19.7577","63.361"
"3509","Calexico International Airport","Calexico","United States","CXL","32.66949844","-115.5130005"
"3578","Millington-Memphis Airport","Millington","United States","NQA","35.356701","-89.8703"
"9442","Eveleth Virginia Municipal Airport","Eveleth","United States","EVM","47.42509842","-92.49849701"
"8218","Aappilattoq Nanortalik Heliport","Aappilattoq","Greenland","QUV","60.1519","-44.2881"
"5263","Jining Qufu Airport","Jining","China","JNG","35.292778","116.346667"
"10044","Viru Harbour Airstrip","Viru Harbour","Solomon Islands","VIU","-8.5085","157.69"
"3187","Xiamen Gaoqi International Airport","Xiamen","China","XMN","24.54400063","118.1279984"
"1631","Bern Belp Airport","Bern","Switzerland","BRN","46.91410065","7.497149944"
"1709","Cibao International Airport","Santiago","Dominican Republic","STI","19.40609932","-70.60469818"
"4989","Zhanjiang Airport","Zhanjiang","China","ZHA","21.214399","110.358002"
"5152","Geneina Airport","Geneina","Sudan","EGN","13.48169994","22.46719933"
"6699","Richmond Airport","Richmond","Australia","RCM","-20.70190048","143.1150055"
"2703","La Fria Airport","La Fria","Venezuela","LFR","8.239167213","-72.27102661"
"5216","Reykjahlíð Airport","Myvatn","Iceland","MVA","65.65579987","-16.91810036"
"1151","Lake Manyara Airport","Lake Manyara","Tanzania","LKY","-3.37631011","35.81829834"
"2523","Carriel Sur Airport","Concepcion","Chile","CCP","-36.772701","-73.063103"
"3555","Truth Or Consequences Municipal Airport","Truth Or Consequences","United States","TCS","33.23690033","-107.2720032"
"6393","Kangding Airport","Kangding","China","KGT","30.1575","101.734722"
"9692","Taylor Airport","Taylor","United States","TYZ","34.45280075","-110.1149979"
"8231","Roche Harbor                            ","Friday Harbor","United States","RCE","48.6123","-123.1385"
"1981","Kandahar Airport","Kandahar","Afghanistan","KDH","31.50580025","65.84780121"
"8337","Tumxuk Tangwangcheng","","","TWC","39.525","78.5942"
"9897","Taharoa Aerodrome","Taharoa","New Zealand","THH","-38.18109894","174.7079926"
"3249","General Edward Lawrence Logan International Airport","Boston","United States","BOS","42.36429977","-71.00520325"
"3830","Appleton International Airport","Appleton","United States","ATW","44.2580986","-88.51909637"
"4332","Manja Airport","Manja","Madagascar","MJA","-21.426105","44.316509"
"5571","Wilwal International Airport","Jijiga","Ethiopia","JIJ","9.3325","42.9121"
"5016","Huangyan Luqiao Airport","Huangyan","China","HYN","28.56220055","121.4290009"
"10482","Delta Downs Airport","","","DDN","-16.99169922","141.3170013"
"9082","Moba Airport","Moba","Democratic Republic Of The Congo","BDV","-7.066999912","29.78300095"
"3714","El Tari Airport","Kupang","Indonesia","KOE","-10.17160034","123.6709976"
"231","Touat Cheikh Sidi Mohamed Belkebir Airport","Adrar","Algeria","AZR","27.83760071","-0.186414003"
